UNKNOWN                 
1 81406U          25292.35457271  .00007793  00000+0  31263-2 0  9995
2 81406  65.8109 277.1365 0865065 343.7573  13.7239 13.11710306526543
UNKNOWN                 
1 81427U          25303.61830650  .00001237  00000+0  74396-3 0  9998
2 81427  98.7505 187.1359 0084078 159.0346 201.4304 14.06831788545708
UNKNOWN                 
1 81438U          25302.35638006  .00003322  00000+0  49172-2 0  9991
2 81438 100.3068 172.1704 0042596 190.0675 169.9610 13.54327823585930
UNKNOWN                 
1 81439U          25302.52543220 -.00000175  00000+0 -33117-3 0  9992
2 81439  67.1595 227.2955 0606628 230.3783 124.2179 12.62595531256318
UNKNOWN                 
1 81449U          25302.88175818  .00066138  00000+0  63233-2 0  9996
2 81449  66.7948 118.8255 0030324 175.8758 184.2629 14.92485301626992
UNKNOWN                 
1 81478U          25302.27612060  .00004344  00000+0  15862-2 0  9992
2 81478  98.9455 213.0700 0147475 126.4895   4.7033 14.27646164616591
UNKNOWN                 
1 81488U          25301.41635929  .00000332  00000+0  53290-3 0  9998
2 81488 100.0054 173.3917 0044964 111.5207  71.9315 13.56490215590484
UNKNOWN                 
1 81497U          25301.47055154  .00004679  00000+0  42653-2 0  9998
2 81497 100.2984 191.8372 0027297 128.3236  56.0235 13.83664799210031
UNKNOWN                 
1 81499U          25301.00321832  .00003796  00000+0  10565-2 0  9994
2 81499  74.0488 306.4608 0002040 312.6536  47.4451 14.46719705475806
UNKNOWN                 
1 81535U          25303.46227281  .00001506  00000+0  63652-3 0  9993
2 81535  98.2044  29.2204 0234667 273.8538  83.5838 14.13222471381288
UNKNOWN                 
1 81536U          25302.84826688  .00000723  00000+0  46745-2 0  9994
2 81536 101.9553 163.4113 0034812 353.6413  72.7850 12.55789352546305
UNKNOWN                 
1 81537U          25302.46129502  .00000451  00000+0  28951-3 0  9992
2 81537  71.0397 200.8490 0078841 220.5169 139.0065 14.07044117614238
