CCSDS_OMM_VERS = 2.0
CREATION_DATE  = 
ORIGINATOR     = 

OBJECT_NAME    = UNKNOWN
OBJECT_ID      = 
CENTER_NAME    = EARTH
REF_FRAME      = TEME
TIME_SYSTEM    = UTC
MEAN_ELEMENT_THEORY = SGP/SGP4

EPOCH          = 2025-10-19T08:30:35.082144
MEAN_MOTION    = 13.11710306
ECCENTRICITY   = .0865065
INCLINATION    = 65.8109
RA_OF_ASC_NODE = 277.1365
ARG_OF_PERICENTER = 343.7573
MEAN_ANOMALY   = 13.7239

EPHEMERIS_TYPE = 0
CLASSIFICATION_TYPE = U
NORAD_CAT_ID   = 81406
ELEMENT_SET_NO = 999
REV_AT_EPOCH   = 52654
BSTAR          = .31263E-2
MEAN_MOTION_DOT = .7793E-4
MEAN_MOTION_DDOT = 0

CCSDS_OMM_VERS = 2.0
CREATION_DATE  = 
ORIGINATOR     = 

OBJECT_NAME    = UNKNOWN
OBJECT_ID      = 
CENTER_NAME    = EARTH
REF_FRAME      = TEME
TIME_SYSTEM    = UTC
MEAN_ELEMENT_THEORY = SGP/SGP4

EPOCH          = 2025-10-30T14:50:21.681600
MEAN_MOTION    = 14.06831788
ECCENTRICITY   = .0084078
INCLINATION    = 98.7505
RA_OF_ASC_NODE = 187.1359
ARG_OF_PERICENTER = 159.0346
MEAN_ANOMALY   = 201.4304

EPHEMERIS_TYPE = 0
CLASSIFICATION_TYPE = U
NORAD_CAT_ID   = 81427
ELEMENT_SET_NO = 999
REV_AT_EPOCH   = 54570
BSTAR          = .74396E-3
MEAN_MOTION_DOT = .1237E-4
MEAN_MOTION_DDOT = 0

CCSDS_OMM_VERS = 2.0
CREATION_DATE  = 
ORIGINATOR     = 

OBJECT_NAME    = UNKNOWN
OBJECT_ID      = 
CENTER_NAME    = EARTH
REF_FRAME      = TEME
TIME_SYSTEM    = UTC
MEAN_ELEMENT_THEORY = SGP/SGP4

EPOCH          = 2025-10-29T08:33:11.237184
MEAN_MOTION    = 13.54327823
ECCENTRICITY   = .0042596
INCLINATION    = 100.3068
RA_OF_ASC_NODE = 172.1704
ARG_OF_PERICENTER = 190.0675
MEAN_ANOMALY   = 169.9610

EPHEMERIS_TYPE = 0
CLASSIFICATION_TYPE = U
NORAD_CAT_ID   = 81438
ELEMENT_SET_NO = 999
REV_AT_EPOCH   = 58593
BSTAR          = .49172E-2
MEAN_MOTION_DOT = .3322E-4
MEAN_MOTION_DDOT = 0

CCSDS_OMM_VERS = 2.0
CREATION_DATE  = 
ORIGINATOR     = 

OBJECT_NAME    = UNKNOWN
OBJECT_ID      = 
CENTER_NAME    = EARTH
REF_FRAME      = TEME
TIME_SYSTEM    = UTC
MEAN_ELEMENT_THEORY = SGP/SGP4

EPOCH          = 2025-10-29T12:36:37.342080
MEAN_MOTION    = 12.62595531
ECCENTRICITY   = .0606628
INCLINATION    = 67.1595
RA_OF_ASC_NODE = 227.2955
ARG_OF_PERICENTER = 230.3783
MEAN_ANOMALY   = 124.2179

EPHEMERIS_TYPE = 0
CLASSIFICATION_TYPE = U
NORAD_CAT_ID   = 81439
ELEMENT_SET_NO = 999
REV_AT_EPOCH   = 25631
BSTAR          = -.33117E-3
MEAN_MOTION_DOT = -.175E-5
MEAN_MOTION_DDOT = 0

CCSDS_OMM_VERS = 2.0
CREATION_DATE  = 
ORIGINATOR     = 

OBJECT_NAME    = UNKNOWN
OBJECT_ID      = 
CENTER_NAME    = EARTH
REF_FRAME      = TEME
TIME_SYSTEM    = UTC
MEAN_ELEMENT_THEORY = SGP/SGP4

EPOCH          = 2025-10-29T21:09:43.906752
MEAN_MOTION    = 14.92485301
ECCENTRICITY   = .0030324
INCLINATION    = 66.7948
RA_OF_ASC_NODE = 118.8255
ARG_OF_PERICENTER = 175.8758
MEAN_ANOMALY   = 184.2629

EPHEMERIS_TYPE = 0
CLASSIFICATION_TYPE = U
NORAD_CAT_ID   = 81449
ELEMENT_SET_NO = 999
REV_AT_EPOCH   = 62699
BSTAR          = .63233E-2
MEAN_MOTION_DOT = .66138E-3
MEAN_MOTION_DDOT = 0

CCSDS_OMM_VERS = 2.0
CREATION_DATE  = 
ORIGINATOR     = 

OBJECT_NAME    = UNKNOWN
OBJECT_ID      = 
CENTER_NAME    = EARTH
REF_FRAME      = TEME
TIME_SYSTEM    = UTC
MEAN_ELEMENT_THEORY = SGP/SGP4

EPOCH          = 2025-10-29T06:37:36.819840
MEAN_MOTION    = 14.27646164
ECCENTRICITY   = .0147475
INCLINATION    = 98.9455
RA_OF_ASC_NODE = 213.0700
ARG_OF_PERICENTER = 126.4895
MEAN_ANOMALY   = 4.7033

EPHEMERIS_TYPE = 0
CLASSIFICATION_TYPE = U
NORAD_CAT_ID   = 81478
ELEMENT_SET_NO = 999
REV_AT_EPOCH   = 61659
BSTAR          = .15862E-2
MEAN_MOTION_DOT = .4344E-4
MEAN_MOTION_DDOT = 0

CCSDS_OMM_VERS = 2.0
CREATION_DATE  = 
ORIGINATOR     = 

OBJECT_NAME    = UNKNOWN
OBJECT_ID      = 
CENTER_NAME    = EARTH
REF_FRAME      = TEME
TIME_SYSTEM    = UTC
MEAN_ELEMENT_THEORY = SGP/SGP4

EPOCH          = 2025-10-28T09:59:33.442656
MEAN_MOTION    = 13.56490215
ECCENTRICITY   = .0044964
INCLINATION    = 100.0054
RA_OF_ASC_NODE = 173.3917
ARG_OF_PERICENTER = 111.5207
MEAN_ANOMALY   = 71.9315

EPHEMERIS_TYPE = 0
CLASSIFICATION_TYPE = U
NORAD_CAT_ID   = 81488
ELEMENT_SET_NO = 999
REV_AT_EPOCH   = 59048
BSTAR          = .5329E-3
MEAN_MOTION_DOT = .332E-5
MEAN_MOTION_DDOT = 0

CCSDS_OMM_VERS = 2.0
CREATION_DATE  = 
ORIGINATOR     = 

OBJECT_NAME    = UNKNOWN
OBJECT_ID      = 
CENTER_NAME    = EARTH
REF_FRAME      = TEME
TIME_SYSTEM    = UTC
MEAN_ELEMENT_THEORY = SGP/SGP4

EPOCH          = 2025-10-28T11:17:35.653056
MEAN_MOTION    = 13.83664799
ECCENTRICITY   = .0027297
INCLINATION    = 100.2984
RA_OF_ASC_NODE = 191.8372
ARG_OF_PERICENTER = 128.3236
MEAN_ANOMALY   = 56.0235

EPHEMERIS_TYPE = 0
CLASSIFICATION_TYPE = U
NORAD_CAT_ID   = 81497
ELEMENT_SET_NO = 999
REV_AT_EPOCH   = 21003
BSTAR          = .42653E-2
MEAN_MOTION_DOT = .4679E-4
MEAN_MOTION_DDOT = 0

CCSDS_OMM_VERS = 2.0
CREATION_DATE  = 
ORIGINATOR     = 

OBJECT_NAME    = UNKNOWN
OBJECT_ID      = 
CENTER_NAME    = EARTH
REF_FRAME      = TEME
TIME_SYSTEM    = UTC
MEAN_ELEMENT_THEORY = SGP/SGP4

EPOCH          = 2025-10-28T00:04:38.062848
MEAN_MOTION    = 14.46719705
ECCENTRICITY   = .000204
INCLINATION    = 74.0488
RA_OF_ASC_NODE = 306.4608
ARG_OF_PERICENTER = 312.6536
MEAN_ANOMALY   = 47.4451

EPHEMERIS_TYPE = 0
CLASSIFICATION_TYPE = U
NORAD_CAT_ID   = 81499
ELEMENT_SET_NO = 999
REV_AT_EPOCH   = 47580
BSTAR          = .10565E-2
MEAN_MOTION_DOT = .3796E-4
MEAN_MOTION_DDOT = 0

CCSDS_OMM_VERS = 2.0
CREATION_DATE  = 
ORIGINATOR     = 

OBJECT_NAME    = UNKNOWN
OBJECT_ID      = 
CENTER_NAME    = EARTH
REF_FRAME      = TEME
TIME_SYSTEM    = UTC
MEAN_ELEMENT_THEORY = SGP/SGP4

EPOCH          = 2025-10-30T11:05:40.370784
MEAN_MOTION    = 14.13222471
ECCENTRICITY   = .0234667
INCLINATION    = 98.2044
RA_OF_ASC_NODE = 29.2204
ARG_OF_PERICENTER = 273.8538
MEAN_ANOMALY   = 83.5838

EPHEMERIS_TYPE = 0
CLASSIFICATION_TYPE = U
NORAD_CAT_ID   = 81535
ELEMENT_SET_NO = 999
REV_AT_EPOCH   = 38128
BSTAR          = .63652E-3
MEAN_MOTION_DOT = .1506E-4
MEAN_MOTION_DDOT = 0

CCSDS_OMM_VERS = 2.0
CREATION_DATE  = 
ORIGINATOR     = 

OBJECT_NAME    = UNKNOWN
OBJECT_ID      = 
CENTER_NAME    = EARTH
REF_FRAME      = TEME
TIME_SYSTEM    = UTC
MEAN_ELEMENT_THEORY = SGP/SGP4

EPOCH          = 2025-10-29T20:21:30.258432
MEAN_MOTION    = 12.55789352
ECCENTRICITY   = .0034812
INCLINATION    = 101.9553
RA_OF_ASC_NODE = 163.4113
ARG_OF_PERICENTER = 353.6413
MEAN_ANOMALY   = 72.7850

EPHEMERIS_TYPE = 0
CLASSIFICATION_TYPE = U
NORAD_CAT_ID   = 81536
ELEMENT_SET_NO = 999
REV_AT_EPOCH   = 54630
BSTAR          = .46745E-2
MEAN_MOTION_DOT = .723E-5
MEAN_MOTION_DDOT = 0

CCSDS_OMM_VERS = 2.0
CREATION_DATE  = 
ORIGINATOR     = 

OBJECT_NAME    = UNKNOWN
OBJECT_ID      = 
CENTER_NAME    = EARTH
REF_FRAME      = TEME
TIME_SYSTEM    = UTC
MEAN_ELEMENT_THEORY = SGP/SGP4

EPOCH          = 2025-10-29T11:04:15.889728
MEAN_MOTION    = 14.07044117
ECCENTRICITY   = .0078841
INCLINATION    = 71.0397
RA_OF_ASC_NODE = 200.8490
ARG_OF_PERICENTER = 220.5169
MEAN_ANOMALY   = 139.0065

EPHEMERIS_TYPE = 0
CLASSIFICATION_TYPE = U
NORAD_CAT_ID   = 81537
ELEMENT_SET_NO = 999
REV_AT_EPOCH   = 61423
BSTAR          = .28951E-3
MEAN_MOTION_DOT = .451E-5
MEAN_MOTION_DDOT = 0

